[{"OBJECT_NAME":"STARLINK-32577","OBJECT_ID":"2024-216N","EPOCH":"2026-03-03T02:03:10.592928","MEAN_MOTION":15.27601805,"ECCENTRICITY":0.0001559,"INCLINATION":43.0016,"RA_OF_ASC_NODE":300.7124,"ARG_OF_PERICENTER":272.988,"MEAN_ANOMALY":87.0793,"EPHEMERIS_TYPE":0,"CLASSIFICATION_TYPE":"U","NORAD_CAT_ID":62044,"ELEMENT_SET_NO":999,"REV_AT_EPOCH":7279,"BSTAR":0.0015545,"MEAN_MOTION_DOT":0.00042791,"MEAN_MOTION_DDOT":0},{"OBJECT_NAME":"STARLINK-32618","OBJECT_ID":"2024-216P","EPOCH":"2026-03-03T00:30:25.979328","MEAN_MOTION":15.27579954,"ECCENTRICITY":0.0001212,"INCLINATION":42.993,"RA_OF_ASC_NODE":294.1673,"ARG_OF_PERICENTER":74.3274,"MEAN_ANOMALY":285.7711,"EPHEMERIS_TYPE":0,"CLASSIFICATION_TYPE":"U","NORAD_CAT_ID":62045,"ELEMENT_SET_NO":999,"REV_AT_EPOCH":7285,"BSTAR":0.0009407,"MEAN_MOTION_DOT":0.00025714,"MEAN_MOTION_DDOT":0},{"OBJECT_NAME":"STARLINK-32598","OBJECT_ID":"2024-216Q","EPOCH":"2026-03-03T00:52:25.133664","MEAN_MOTION":15.27603636,"ECCENTRICITY":7.24e-5,"INCLINATION":42.9987,"RA_OF_ASC_NODE":293.423,"ARG_OF_PERICENTER":238.3919,"MEAN_ANOMALY":121.6862,"EPHEMERIS_TYPE":0,"CLASSIFICATION_TYPE":"U","NORAD_CAT_ID":62046,"ELEMENT_SET_NO":999,"REV_AT_EPOCH":7286,"BSTAR":0.0012583,"MEAN_MOTION_DOT":0.00034552,"MEAN_MOTION_DDOT":0},{"OBJECT_NAME":"STARLINK-32630","OBJECT_ID":"2024-216R","EPOCH":"2026-03-03T00:45:41.293152","MEAN_MOTION":15.27593863,"ECCENTRICITY":2.95e-5,"INCLINATION":42.9926,"RA_OF_ASC_NODE":301.1698,"ARG_OF_PERICENTER":67.1718,"MEAN_ANOMALY":292.9165,"EPHEMERIS_TYPE":0,"CLASSIFICATION_TYPE":"U","NORAD_CAT_ID":62047,"ELEMENT_SET_NO":999,"REV_AT_EPOCH":7277,"BSTAR":0.0012064,"MEAN_MOTION_DOT":0.00033098,"MEAN_MOTION_DDOT":0},{"OBJECT_NAME":"STARLINK-32599","OBJECT_ID":"2024-216S","EPOCH":"2026-03-03T00:51:13.596192","MEAN_MOTION":15.27583817,"ECCENTRICITY":0.0001992,"INCLINATION":43.0048,"RA_OF_ASC_NODE":301.1931,"ARG_OF_PERICENTER":255.4882,"MEAN_ANOMALY":104.5749,"EPHEMERIS_TYPE":0,"CLASSIFICATION_TYPE":"U","NORAD_CAT_ID":62048,"ELEMENT_SET_NO":999,"REV_AT_EPOCH":7277,"BSTAR":0.001177,"MEAN_MOTION_DOT":0.00032273,"MEAN_MOTION_DDOT":0},{"OBJECT_NAME":"STARLINK-32473","OBJECT_ID":"2024-216T","EPOCH":"2026-03-03T00:17:28.521024","MEAN_MOTION":15.27591865,"ECCENTRICITY":5.87e-5,"INCLINATION":42.9928,"RA_OF_ASC_NODE":294.0986,"ARG_OF_PERICENTER":88.2895,"MEAN_ANOMALY":271.8024,"EPHEMERIS_TYPE":0,"CLASSIFICATION_TYPE":"U","NORAD_CAT_ID":62049,"ELEMENT_SET_NO":999,"REV_AT_EPOCH":7169,"BSTAR":0.0011075,"MEAN_MOTION_DOT":0.00030352,"MEAN_MOTION_DDOT":0},{"OBJECT_NAME":"STARLINK-32492","OBJECT_ID":"2024-216U","EPOCH":"2026-03-03T01:48:22.820832","MEAN_MOTION":15.27586553,"ECCENTRICITY":0.0001127,"INCLINATION":42.9985,"RA_OF_ASC_NODE":300.6323,"ARG_OF_PERICENTER":279.1739,"MEAN_ANOMALY":80.8985,"EPHEMERIS_TYPE":0,"CLASSIFICATION_TYPE":"U","NORAD_CAT_ID":62050,"ELEMENT_SET_NO":999,"REV_AT_EPOCH":7278,"BSTAR":0.00045871,"MEAN_MOTION_DOT":0.00012384,"MEAN_MOTION_DDOT":0},{"OBJECT_NAME":"STARLINK-32496","OBJECT_ID":"2024-216V","EPOCH":"2026-03-03T01:06:01.822752","MEAN_MOTION":15.27594676,"ECCENTRICITY":0.0001386,"INCLINATION":43.0027,"RA_OF_ASC_NODE":301.2732,"ARG_OF_PERICENTER":265.4753,"MEAN_ANOMALY":94.594,"EPHEMERIS_TYPE":0,"CLASSIFICATION_TYPE":"U","NORAD_CAT_ID":62051,"ELEMENT_SET_NO":999,"REV_AT_EPOCH":7277,"BSTAR":0.00079761,"MEAN_MOTION_DOT":0.00021761,"MEAN_MOTION_DDOT":0},{"OBJECT_NAME":"STARLINK-32495","OBJECT_ID":"2024-216W","EPOCH":"2026-03-03T01:22:28.217856","MEAN_MOTION":15.27592036,"ECCENTRICITY":0.0002266,"INCLINATION":43.0026,"RA_OF_ASC_NODE":300.4981,"ARG_OF_PERICENTER":254.2379,"MEAN_ANOMALY":105.8222,"EPHEMERIS_TYPE":0,"CLASSIFICATION_TYPE":"U","NORAD_CAT_ID":62052,"ELEMENT_SET_NO":999,"REV_AT_EPOCH":7278,"BSTAR":0.00079234,"MEAN_MOTION_DOT":0.00021614,"MEAN_MOTION_DDOT":0},{"OBJECT_NAME":"STARLINK-32494","OBJECT_ID":"2024-216X","EPOCH":"2026-03-03T01:59:28.645152","MEAN_MOTION":15.2759087,"ECCENTRICITY":0.0001478,"INCLINATION":43.0001,"RA_OF_ASC_NODE":300.6914,"ARG_OF_PERICENTER":263.9096,"MEAN_ANOMALY":96.1587,"EPHEMERIS_TYPE":0,"CLASSIFICATION_TYPE":"U","NORAD_CAT_ID":62053,"ELEMENT_SET_NO":999,"REV_AT_EPOCH":7278,"BSTAR":0.0011042,"MEAN_MOTION_DOT":0.00030259,"MEAN_MOTION_DDOT":0},{"OBJECT_NAME":"STARLINK-32408","OBJECT_ID":"2024-216Y","EPOCH":"2026-03-03T01:46:04.212768","MEAN_MOTION":15.2759148,"ECCENTRICITY":0.0001526,"INCLINATION":43.0022,"RA_OF_ASC_NODE":293.6992,"ARG_OF_PERICENTER":274.5186,"MEAN_ANOMALY":85.5492,"EPHEMERIS_TYPE":0,"CLASSIFICATION_TYPE":"U","NORAD_CAT_ID":62054,"ELEMENT_SET_NO":999,"REV_AT_EPOCH":7287,"BSTAR":0.0011697,"MEAN_MOTION_DOT":0.00032077,"MEAN_MOTION_DDOT":0},{"OBJECT_NAME":"STARLINK-32571","OBJECT_ID":"2024-216Z","EPOCH":"2026-03-03T00:46:51.340224","MEAN_MOTION":15.27594423,"ECCENTRICITY":0.0002131,"INCLINATION":43.0034,"RA_OF_ASC_NODE":293.3889,"ARG_OF_PERICENTER":259.7996,"MEAN_ANOMALY":100.2616,"EPHEMERIS_TYPE":0,"CLASSIFICATION_TYPE":"U","NORAD_CAT_ID":62055,"ELEMENT_SET_NO":999,"REV_AT_EPOCH":7296,"BSTAR":0.0016082,"MEAN_MOTION_DOT":0.00044278,"MEAN_MOTION_DDOT":0},{"OBJECT_NAME":"STARLINK-11465 [DTC]","OBJECT_ID":"2024-217A","EPOCH":"2026-03-03T11:55:00.802848","MEAN_MOTION":15.69759145,"ECCENTRICITY":0.0001478,"INCLINATION":53.1568,"RA_OF_ASC_NODE":101.5819,"ARG_OF_PERICENTER":88.7425,"MEAN_ANOMALY":271.3762,"EPHEMERIS_TYPE":0,"CLASSIFICATION_TYPE":"U","NORAD_CAT_ID":62057,"ELEMENT_SET_NO":999,"REV_AT_EPOCH":7420,"BSTAR":0.0013402,"MEAN_MOTION_DOT":0.00165384,"MEAN_MOTION_DDOT":0},{"OBJECT_NAME":"STARLINK-11426 [DTC]","OBJECT_ID":"2024-217B","EPOCH":"2026-03-03T08:44:34.870272","MEAN_MOTION":15.69767515,"ECCENTRICITY":8.62e-5,"INCLINATION":53.1569,"RA_OF_ASC_NODE":102.1774,"ARG_OF_PERICENTER":66.277,"MEAN_ANOMALY":293.8338,"EPHEMERIS_TYPE":0,"CLASSIFICATION_TYPE":"U","NORAD_CAT_ID":62058,"ELEMENT_SET_NO":999,"REV_AT_EPOCH":7412,"BSTAR":0.0015402,"MEAN_MOTION_DOT":0.00190812,"MEAN_MOTION_DDOT":0},{"OBJECT_NAME":"STARLINK-11454 [DTC]","OBJECT_ID":"2024-217C","EPOCH":"2026-03-03T08:02:20.840352","MEAN_MOTION":15.69710475,"ECCENTRICITY":0.0001259,"INCLINATION":53.1566,"RA_OF_ASC_NODE":102.7189,"ARG_OF_PERICENTER":66.2036,"MEAN_ANOMALY":293.9113,"EPHEMERIS_TYPE":0,"CLASSIFICATION_TYPE":"U","NORAD_CAT_ID":62059,"ELEMENT_SET_NO":999,"REV_AT_EPOCH":7417,"BSTAR":0.0015672,"MEAN_MOTION_DOT":0.00193774,"MEAN_MOTION_DDOT":0},{"OBJECT_NAME":"STARLINK-11473 [DTC]","OBJECT_ID":"2024-217D","EPOCH":"2026-03-03T09:48:09.535680","MEAN_MOTION":15.69727498,"ECCENTRICITY":0.0001449,"INCLINATION":53.1569,"RA_OF_ASC_NODE":102.4687,"ARG_OF_PERICENTER":72.6783,"MEAN_ANOMALY":287.4393,"EPHEMERIS_TYPE":0,"CLASSIFICATION_TYPE":"U","NORAD_CAT_ID":62060,"ELEMENT_SET_NO":999,"REV_AT_EPOCH":7418,"BSTAR":0.0018414,"MEAN_MOTION_DOT":0.00228922,"MEAN_MOTION_DDOT":0}]
